[{"OBJECT_NAME":"STARLINK-31508","OBJECT_ID":"2024-071V","EPOCH":"2026-03-09T04:24:53.648064","MEAN_MOTION":15.27573533,"ECCENTRICITY":0.00015887,"INCLINATION":43,"RA_OF_ASC_NODE":342.998,"ARG_OF_PERICENTER":245.9634,"MEAN_ANOMALY":114.1051,"EPHEMERIS_TYPE":0,"CLASSIFICATION_TYPE":"U","NORAD_CAT_ID":59503,"ELEMENT_SET_NO":999,"REV_AT_EPOCH":10812,"BSTAR":-0.00013500022,"MEAN_MOTION_DOT":-3.974e-5,"MEAN_MOTION_DDOT":0},{"OBJECT_NAME":"TEVEL2-9","OBJECT_ID":"2025-052AD","EPOCH":"2026-03-09T16:51:18.321696","MEAN_MOTION":15.28633834,"ECCENTRICITY":0.000799,"INCLINATION":97.4057,"RA_OF_ASC_NODE":324.3929,"ARG_OF_PERICENTER":124.2475,"MEAN_ANOMALY":235.9522,"EPHEMERIS_TYPE":0,"CLASSIFICATION_TYPE":"U","NORAD_CAT_ID":63237,"ELEMENT_SET_NO":999,"REV_AT_EPOCH":5481,"BSTAR":0.00067240159,"MEAN_MOTION_DOT":0.00018694,"MEAN_MOTION_DDOT":0}]
